OBJECT_NAME,OBJECT_ID,EPOCH,MEAN_MOTION,ECCENTRICITY,INCLINATION,RA_OF_ASC_NODE,ARG_OF_PERICENTER,MEAN_ANOMALY,EPHEMERIS_TYPE,CLASSIFICATION_TYPE,NORAD_CAT_ID,ELEMENT_SET_NO,REV_AT_EPOCH,BSTAR,MEAN_MOTION_DOT,MEAN_MOTION_DDOT
STARLINK-37215,2026-063N,2026-07-07T08:43:27.111072,15.33453472,.0000964,97.2869,330.2853,149.5244,210.6055,0,U,68392,999,1623,.66116E-3,.21336E-3,0
STARLINK-37184,2026-063P,2026-07-07T08:19:58.080000,15.33429131,.0001213,97.2859,330.3070,95.3810,264.7571,0,U,68393,999,1623,.52715E-3,.16973E-3,0
STARLINK-37157,2026-063Q,2026-07-07T09:22:36.395328,15.33431455,.0000515,97.2850,330.4038,113.6778,246.4518,0,U,68394,999,1624,.40917E-3,.13152E-3,0
STARLINK-37172,2026-063R,2026-07-07T09:06:56.829888,15.33432849,.0001141,97.2854,330.2663,98.0130,262.1242,0,U,68395,999,1623,.50158E-3,.16146E-3,0
STARLINK-37190,2026-063S,2026-07-07T08:00:22.087008,15.33413279,.0001448,97.2842,330.3261,292.9854,67.1236,0,U,68396,999,1623,.11455E-2,.37053E-3,0
STARLINK-37194,2026-063T,2026-07-06T21:33:55.689408,15.33434228,.0000902,97.2868,329.8474,97.6504,262.4841,0,U,68397,999,1616,.63434E-3,.20452E-3,0
STARLINK-37220,2026-063U,2026-07-06T21:49:35.669568,15.33414279,.0000641,97.2858,329.8343,108.2287,251.9025,0,U,68398,999,1616,.38179E-3,.12259E-3,0
STARLINK-37187,2026-063V,2026-07-06T22:16:59.922048,15.33419868,.0000605,97.2858,329.9587,98.2646,261.8666,0,U,68399,999,1617,.48935E-3,.15743E-3,0
STARLINK-36235,2026-063W,2026-07-07T08:23:52.579104,15.33430293,.0001503,97.2856,330.3076,90.6547,269.4868,0,U,68400,999,1623,.49655E-3,.15982E-3,0
STARLINK-37175,2026-063X,2026-07-07T08:59:06.527040,15.33453363,.000173,97.2857,330.2709,83.4253,276.7186,0,U,68401,999,1623,.60026E-3,.19359E-3,0
STARLINK-36360,2026-063Y,2026-07-06T23:03:59.079744,15.33416776,.0001063,97.2859,329.9182,99.1097,261.0266,0,U,68402,999,1617,.45192E-3,.1453E-3,0
STARLINK-37218,2026-063Z,2026-07-07T08:23:12.943104,15.36994658,.0001105,97.2850,333.1976,103.9338,256.2029,0,U,68403,999,1642,.55202E-3,.19924E-3,0
STARLINK-37188,2026-063AA,2026-07-07T07:52:33.112992,15.33432750,.000077,97.2858,330.3373,197.1954,162.9263,0,U,68404,999,1623,.53721E-3,.17301E-3,0
STARLINK-37262,2026-068A,2026-07-07T07:45:53.195040,15.34428380,.0001188,53.1590,285.4898,83.8548,276.2590,0,U,68508,999,1537,.82622E-3,.27667E-3,0
STARLINK-36292,2026-068B,2026-07-07T06:43:47.858592,15.34422375,.0001252,53.1594,291.0286,49.8147,310.2965,0,U,68509,999,1529,.855E-3,.28642E-3,0
STARLINK-37260,2026-068C,2026-07-07T11:06:16.344288,15.34451719,.000127,53.1585,288.5643,60.4266,299.6863,0,U,68510,999,1534,.81426E-3,.2728E-3,0
STARLINK-37280,2026-068D,2026-07-07T07:00:26.125056,15.34421153,.0001262,53.1560,285.2967,63.5187,296.5945,0,U,68511,999,1537,.69216E-3,.23097E-3,0
STARLINK-37286,2026-068E,2026-07-06T13:24:27.620064,15.34396377,.0000943,53.1587,288.5486,84.6254,275.4856,0,U,68512,999,1526,.85853E-3,.28738E-3,0
STARLINK-36250,2026-068F,2026-07-07T06:49:51.365856,15.34417063,.0001493,53.1587,291.0561,42.5807,317.5311,0,U,68513,999,1529,.60819E-3,.20239E-3,0
STARLINK-37251,2026-068G,2026-07-07T06:22:41.674368,15.34402461,.0001807,53.1586,291.6693,69.5587,290.5609,0,U,68514,999,1528,.67619E-3,.22541E-3,0
STARLINK-36293,2026-068H,2026-07-07T10:55:00.579648,15.34429610,.0001063,53.1568,290.6984,87.9168,272.1957,0,U,68515,999,1531,.71027E-3,.2372E-3,0
STARLINK-36290,2026-068J,2026-07-07T06:58:55.615008,15.34440579,.0001159,53.1583,291.0878,111.3552,248.7574,0,U,68516,999,1529,.15261E-2,.51606E-3,0
STARLINK-36298,2026-068K,2026-07-07T12:19:42.203424,15.34390637,.0000794,53.1571,290.3711,86.4714,273.6379,0,U,68517,999,1532,.63336E-3,.21077E-3,0
STARLINK-36857,2026-068L,2026-07-06T13:56:17.494656,15.34401696,.000091,53.1587,294.4863,90.2896,269.8211,0,U,68518,999,1518,.1349E-2,.4548E-3,0
STARLINK-36326,2026-068M,2026-07-07T07:17:06.737280,15.34408348,.0001386,53.1580,291.1797,100.5787,259.5372,0,U,68519,999,1529,.65904E-3,.21961E-3,0
STARLINK-37126,2026-068N,2026-07-07T07:01:58.522080,15.34420755,.0001079,53.1588,291.1085,95.5533,264.5593,0,U,68520,999,1529,.57925E-3,.19258E-3,0
STARLINK-36347,2026-068P,2026-07-07T07:36:06.590016,15.34424706,.0001264,53.1591,293.3842,100.6451,259.4694,0,U,68521,999,1526,.64002E-3,.21326E-3,0
STARLINK-36322,2026-068Q,2026-07-07T07:20:08.191104,15.34453010,.0000843,53.1566,291.1810,97.4296,262.6802,0,U,68522,999,1529,.93781E-3,.31496E-3,0
STARLINK-37208,2026-068R,2026-07-07T06:46:49.257984,15.34423631,.0000974,53.1597,291.0380,96.2354,263.8760,0,U,68523,999,1529,.74619E-3,.24938E-3,0
STARLINK-36302,2026-068S,2026-07-07T07:29:14.501760,15.34422272,.0001222,53.1577,291.2296,88.7401,271.3742,0,U,68524,999,1529,.63976E-3,.21316E-3,0
