STARLINK-37215          
1 68392U 26063N   26188.36350823  .00021336  00000+0  66116-3 0  9997
2 68392  97.2869 330.2853 0000964 149.5244 210.6055 15.33453472 16231
STARLINK-37184          
1 68393U 26063P   26188.34720000  .00016973  00000+0  52715-3 0  9995
2 68393  97.2859 330.3070 0001213  95.3810 264.7571 15.33429131 16236
STARLINK-37157          
1 68394U 26063Q   26188.39069902  .00013152  00000+0  40917-3 0  9995
2 68394  97.2850 330.4038 0000515 113.6778 246.4518 15.33431455 16245
STARLINK-37172          
1 68395U 26063R   26188.37982442  .00016146  00000+0  50158-3 0  9991
2 68395  97.2854 330.2663 0001141  98.0130 262.1242 15.33432849 16232
STARLINK-37190          
1 68396U 26063S   26188.33358897  .00037053  00000+0  11455-2 0  9995
2 68396  97.2842 330.3261 0001448 292.9854  67.1236 15.33413279 16235
STARLINK-37194          
1 68397U 26063T   26187.89856122  .00020452  00000+0  63434-3 0  9990
2 68397  97.2868 329.8474 0000902  97.6504 262.4841 15.33434228 16160
STARLINK-37220          
1 68398U 26063U   26187.90944062  .00012259  00000+0  38179-3 0  9998
2 68398  97.2858 329.8343 0000641 108.2287 251.9025 15.33414279 16163
STARLINK-37187          
1 68399U 26063V   26187.92847132  .00015743  00000+0  48935-3 0  9993
2 68399  97.2858 329.9587 0000605  98.2646 261.8666 15.33419868 16173
STARLINK-36235          
1 68400U 26063W   26188.34991411  .00015982  00000+0  49655-3 0  9998
2 68400  97.2856 330.3076 0001503  90.6547 269.4868 15.33430293 16237
STARLINK-37175          
1 68401U 26063X   26188.37438110  .00019359  00000+0  60026-3 0  9991
2 68401  97.2857 330.2709 0001730  83.4253 276.7186 15.33453363 16234
STARLINK-36360          
1 68402U 26063Y   26187.96110046  .00014530  00000+0  45192-3 0  9994
2 68402  97.2859 329.9182 0001063  99.1097 261.0266 15.33416776 16172
STARLINK-37218          
1 68403U 26063Z   26188.34945536  .00019924  00000+0  55202-3 0  9993
2 68403  97.2850 333.1976 0001105 103.9338 256.2029 15.36994658 16425
STARLINK-37188          
1 68404U 26063AA  26188.32816103  .00017301  00000+0  53721-3 0  9990
2 68404  97.2858 330.3373 0000770 197.1954 162.9263 15.33432750 16239
STARLINK-37262          
1 68508U 26068A   26188.32353235  .00027667  00000+0  82622-3 0  9990
2 68508  53.1590 285.4898 0001188  83.8548 276.2590 15.34428380 15375
STARLINK-36292          
1 68509U 26068B   26188.28041503  .00028642  00000+0  85500-3 0  9990
2 68509  53.1594 291.0286 0001252  49.8147 310.2965 15.34422375 15297
STARLINK-37260          
1 68510U 26068C   26188.46268917  .00027280  00000+0  81426-3 0  9992
2 68510  53.1585 288.5643 0001270  60.4266 299.6863 15.34451719 15345
STARLINK-37280          
1 68511U 26068D   26188.29196904  .00023097  00000+0  69216-3 0  9995
2 68511  53.1560 285.2967 0001262  63.5187 296.5945 15.34421153 15378
STARLINK-37286          
1 68512U 26068E   26187.55865301  .00028738  00000+0  85853-3 0  9990
2 68512  53.1587 288.5486 0000943  84.6254 275.4856 15.34396377 15268
STARLINK-36250          
1 68513U 26068F   26188.28462229  .00020239  00000+0  60819-3 0  9997
2 68513  53.1587 291.0561 0001493  42.5807 317.5311 15.34417063 15293
STARLINK-37251          
1 68514U 26068G   26188.26576012  .00022541  00000+0  67619-3 0  9995
2 68514  53.1586 291.6693 0001807  69.5587 290.5609 15.34402461 15283
STARLINK-36293          
1 68515U 26068H   26188.45486782  .00023720  00000+0  71027-3 0  9999
2 68515  53.1568 290.6984 0001063  87.9168 272.1957 15.34429610 15310
STARLINK-36290          
1 68516U 26068J   26188.29092147  .00051606  00000+0  15261-2 0  9991
2 68516  53.1583 291.0878 0001159 111.3552 248.7574 15.34440579 15298
STARLINK-36298          
1 68517U 26068K   26188.51368291  .00021077  00000+0  63336-3 0  9999
2 68517  53.1571 290.3711 0000794  86.4714 273.6379 15.34390637 15323
STARLINK-36857          
1 68518U 26068L   26187.58075804  .00045480  00000+0  13490-2 0  9990
2 68518  53.1587 294.4863 0000910  90.2896 269.8211 15.34401696 15182
STARLINK-36326          
1 68519U 26068M   26188.30355020  .00021961  00000+0  65904-3 0  9999
2 68519  53.1580 291.1797 0001386 100.5787 259.5372 15.34408348 15295
STARLINK-37126          
1 68520U 26068N   26188.29303845  .00019258  00000+0  57925-3 0  9997
2 68520  53.1588 291.1085 0001079  95.5533 264.5593 15.34420755 15293
STARLINK-36347          
1 68521U 26068P   26188.31674294  .00021326  00000+0  64002-3 0  9993
2 68521  53.1591 293.3842 0001264 100.6451 259.4694 15.34424706 15268
STARLINK-36322          
1 68522U 26068Q   26188.30565036  .00031496  00000+0  93781-3 0  9991
2 68522  53.1566 291.1810 0000843  97.4296 262.6802 15.34453010 15294
STARLINK-37208          
1 68523U 26068R   26188.28251456  .00024938  00000+0  74619-3 0  9999
2 68523  53.1597 291.0380 0000974  96.2354 263.8760 15.34423631 15299
STARLINK-36302          
1 68524U 26068S   26188.31197340  .00021316  00000+0  63976-3 0  9996
2 68524  53.1577 291.2296 0001222  88.7401 271.3742 15.34422272 15296
